BEIDOU-3 M27 (C49)      
1 61187U 24168C   26086.64527295 -.00000035  00000+0  00000+0 0  9993
2 61187  54.5409 305.0587 0002847  30.2437 333.1760  1.86230021  7744
